NORAD_CAT_ID,OBJECT_NAME,OBJECT_TYPE,EPOCH,MEAN_MOTION,ECCENTRICITY,INCLINATION,RA_OF_ASC_NODE,ARG_OF_PERICENTER,MEAN_ANOMALY,BSTAR,MEAN_MOTION_DOT,MEAN_MOTION_DDOT,TLE_LINE0,TLE_LINE1,TLE_LINE2,SEMIMAJOR_AXIS,PERIOD,APOGEE,PERIGEE,DECAYED
54063.0,STARLINK-5225,PAYLOAD,2023-02-22 21:37:55,15.0882701,0.0001146,53.2154,290.5745,81.8082,278.304,-0.00014263,-2.556e-05,0.0,0 STARLINK-5225,1 54063U 22136N   23053.90134010 -.00002556  00000-0 -14263-3 0  9992,2 54063  53.2154 290.5745 0001146  81.8082 278.3040 15.08827010 19153,6917.92,95.438,540.578,538.992,0.0
54063.0,STARLINK-5225,PAYLOAD,2023-02-23 00:48:42,15.08827683,0.0001092,53.2154,289.9798,75.995,284.1163,5.4698e-05,5.83e-06,0.0,0 STARLINK-5225,1 54063U 22136N   23054.03382175  .00000583  00000-0  54698-4 0  9997,2 54063  53.2154 289.9798 0001092  75.9950 284.1163 15.08827683 19170,6917.918,95.438,540.538,539.028,0.0
54063.0,STARLINK-5225,PAYLOAD,2023-02-23 21:28:42,15.08856683,0.0001127,53.2152,286.1137,69.1113,290.9999,0.0011721,0.00018424,0.0,0 STARLINK-5225,1 54063U 22136N   23054.89494176  .00018424  00000-0  11721-2 0  9997,2 54063  53.2152 286.1137 0001127  69.1113 290.9999 15.08856683 19308,6917.829,95.436,540.474,538.915,0.0
54063.0,STARLINK-5225,PAYLOAD,2023-02-24 00:39:29,15.08862265,0.0001168,53.2152,285.5188,68.3883,291.7234,0.0011792,0.0001854,0.0,0 STARLINK-5225,1 54063U 22136N   23055.02741963  .00018540  00000-0  11792-2 0  9999,2 54063  53.2152 285.5188 0001168  68.3883 291.7234 15.08862265 19806,6917.812,95.436,540.485,538.869,0.0
54063.0,STARLINK-5225,PAYLOAD,2023-02-24 16:33:20,15.08849915,0.0001098,53.2154,282.5449,80.1846,279.927,0.00036231,5.485e-05,0.0,0 STARLINK-5225,1 54063U 22136N   23055.68981986  .00005485  00000-0  36231-3 0  9992,2 54063  53.2154 282.5449 0001098  80.1846 279.9270 15.08849915 19904,6917.85,95.437,540.475,538.956,0.0
54063.0,STARLINK-5225,PAYLOAD,2023-02-24 21:19:29,15.08847315,0.0001111,53.2154,281.6526,75.9473,284.1643,0.000241,3.551e-05,0.0,0 STARLINK-5225,1 54063U 22136N   23055.88853984  .00003551  00000-0  24100-3 0  9994,2 54063  53.2154 281.6526 0001111  75.9473 284.1643 15.08847315 19458,6917.858,95.437,540.492,538.954,0.0
54063.0,STARLINK-5225,PAYLOAD,2023-02-25 14:48:44,15.08838647,0.0001154,53.2151,278.3807,82.3993,277.713,0.00021193,3.087e-05,0.0,0 STARLINK-5225,1 54063U 22136N   23056.61718194  .00003087  00000-0  21193-3 0  9992,2 54063  53.2151 278.3807 0001154  82.3993 277.7130 15.08838647 20040,6917.885,95.438,540.548,538.951,0.0
54063.0,STARLINK-5225,PAYLOAD,2023-02-25 21:10:16,15.08846104,0.0001177,53.2156,277.191,85.2768,274.8358,0.00021757,3.177e-05,0.0,0 STARLINK-5225,1 54063U 22136N   23056.88214005  .00003177  00000-0  21757-3 0  9999,2 54063  53.2156 277.1910 0001177  85.2768 274.8358 15.08846104 19601,6917.862,95.437,540.541,538.912,0.0
54063.0,STARLINK-5225,PAYLOAD,2023-02-26 14:39:31,15.08847558,0.0001211,53.2156,273.9193,90.3005,269.8126,0.00025541,3.78e-05,0.0,0 STARLINK-5225,1 54063U 22136N   23057.61077882  .00003780  00000-0  25541-3 0  9996,2 54063  53.2156 273.9193 0001211  90.3005 269.8126 15.08847558 19711,6917.857,95.437,540.56,538.885,0.0
54063.0,STARLINK-5225,PAYLOAD,2023-02-26 21:01:03,15.08853782,0.0001175,53.2154,272.7301,86.268,273.8447,0.00033762,5.091e-05,0.0,0 STARLINK-5225,1 54063U 22136N   23057.87573525  .00005091  00000-0  33762-3 0  9990,2 54063  53.2154 272.7301 0001175  86.2680 273.8447 15.08853782 20235,6917.838,95.437,540.516,538.89,0.0
54063.0,STARLINK-5225,PAYLOAD,2023-02-26 22:36:26,15.08854396,0.0001164,53.2156,272.433,85.7117,274.4008,0.00033963,5.124e-05,0.0,0 STARLINK-5225,1 54063U 22136N   23057.94197465  .00005124  00000-0  33963-3 0  9993,2 54063  53.2156 272.4330 0001164  85.7117 274.4008 15.08854396 19761,6917.836,95.437,540.507,538.896,0.0
54063.0,STARLINK-5225,PAYLOAD,2023-02-27 17:41:03,15.08860689,0.0001172,53.2158,268.8636,94.2387,265.8739,0.00048138,7.386e-05,0.0,0 STARLINK-5225,1 54063U 22136N   23058.73685167  .00007386  00000-0  48138-3 0  9994,2 54063  53.2158 268.8636 0001172  94.2387 265.8739 15.08860689 20369,6917.817,95.436,540.493,538.871,0.0
54063.0,STARLINK-5225,PAYLOAD,2023-02-27 20:51:50,15.08860503,0.0001066,53.216,268.2701,89.2539,270.8575,0.00046279,7.089e-05,0.0,0 STARLINK-5225,1 54063U 22136N   23058.86933081  .00007089  00000-0  46279-3 0  9993,2 54063  53.2160 268.2701 0001066  89.2539 270.8575 15.08860503 19901,6917.818,95.436,540.42,538.945,0.0
54063.0,STARLINK-5225,PAYLOAD,2023-02-28 14:21:05,15.08831818,0.000131,53.2164,264.9984,80.9331,279.1809,-3.118e-05,-7.84e-06,0.0,0 STARLINK-5225,1 54063U 22136N   23059.59797976 -.00000784  00000-0 -31180-4 0  9998,2 54063  53.2164 264.9984 0001310  80.9331 279.1809 15.08831818 20014,6917.905,95.438,540.677,538.864,0.0
54063.0,STARLINK-5225,PAYLOAD,2023-02-28 20:42:38,15.08821662,0.000105,53.2163,263.8097,74.9765,285.1343,-0.00029032,-4.903e-05,0.0,0 STARLINK-5225,1 54063U 22136N   23059.86294638 -.00004903  00000-0 -29032-3 0  9994,2 54063  53.2163 263.8097 0001050  74.9765 285.1343 15.08821662 20051,6917.936,95.439,540.528,539.075,0.0
54063.0,STARLINK-5225,PAYLOAD,2023-02-28 22:18:01,15.08820823,0.0001059,53.2159,263.5123,77.0,283.1111,-0.00028949,-4.89e-05,0.0,0 STARLINK-5225,1 54063U 22136N   23059.92918784 -.00004890  00000-0 -28949-3 0  9997,2 54063  53.2159 263.5123 0001059  77.0000 283.1111 15.08820823 20541,6917.939,95.439,540.537,539.071,0.0
54063.0,STARLINK-5225,PAYLOAD,2023-03-01 06:14:57,15.08827807,0.000104,53.2163,262.0255,73.1414,286.9692,-0.00014909,-2.659e-05,0.0,0 STARLINK-5225,1 54063U 22136N   23060.26038899 -.00002659  00000-0 -14909-3 0  9998,2 54063  53.2163 262.0255 0001040  73.1414 286.9692 15.08827807 20591,6917.918,95.438,540.502,539.063,0.0
54063.0,STARLINK-5225,PAYLOAD,2023-03-01 20:33:25,15.08836342,0.0001012,53.2161,259.3492,73.7641,286.3462,5.7499e-05,6.27e-06,0.0,0 STARLINK-5225,1 54063U 22136N   23060.85654985  .00000627  00000-0  57499-4 0  9996,2 54063  53.2161 259.3492 0001012  73.7641 286.3462 15.08836342 20209,6917.892,95.438,540.457,539.056,0.0
54063.0,STARLINK-5225,PAYLOAD,2023-03-01 23:44:12,15.0883909,0.0001024,53.2161,258.7544,75.7783,284.3322,0.00011932,1.612e-05,0.0,0 STARLINK-5225,1 54063U 22136N   23060.98902904  .00001612  00000-0  11932-3 0  9993,2 54063  53.2161 258.7544 0001024  75.7783 284.3322 15.08839090 20703,6917.883,95.438,540.457,539.04,0.0
54063.0,STARLINK-5225,PAYLOAD,2023-03-02 14:02:40,15.08837024,0.0001075,53.2157,256.0782,68.4008,291.7098,0.00035895,5.429e-05,0.0,0 STARLINK-5225,1 54063U 22136N   23061.58519383  .00005429  00000-0  35895-3 0  9999,2 54063  53.2157 256.0782 0001075  68.4008 291.7098 15.08837024 20312,6917.889,95.438,540.498,539.011,0.0
54063.0,STARLINK-5225,PAYLOAD,2023-03-03 05:56:31,15.08853255,9.93e-05,53.2154,253.1049,72.9103,287.1998,0.00035871,5.428e-05,0.0,0 STARLINK-5225,1 54063U 22136N   23062.24758704  .00005428  00000-0  35871-3 0  9998,2 54063  53.2154 253.1049 0000993  72.9103 287.1998 15.08853255 20892,6917.84,95.437,540.392,539.018,0.0
54063.0,STARLINK-5225,PAYLOAD,2023-03-03 12:18:03,15.08850494,0.0001165,53.2153,251.9163,77.1161,282.9962,0.00023128,3.396e-05,0.0,0 STARLINK-5225,1 54063U 22136N   23062.51254618  .00003396  00000-0  23128-3 0  9997,2 54063  53.2153 251.9163 0001165  77.1161 282.9962 15.08850494 20455,6917.848,95.437,540.519,538.907,0.0
54063.0,STARLINK-5225,PAYLOAD,2023-03-03 18:39:36,15.08855433,0.0001154,53.2149,250.7271,74.9169,285.1951,0.0003137,4.71e-05,0.0,0 STARLINK-5225,1 54063U 22136N   23062.77750314  .00004710  00000-0  31370-3 0  9998,2 54063  53.2149 250.7271 0001154  74.9169 285.1951 15.08855433 20493,6917.833,95.437,540.497,538.9,0.0
54063.0,STARLINK-5225,PAYLOAD,2023-03-04 12:08:51,15.08840305,0.0001025,53.2146,247.4543,82.184,277.9268,1.4339e-05,-6e-07,0.0,0 STARLINK-5225,1 54063U 22136N   23063.50614748 -.00000060  00000-0  14339-4 0  9992,2 54063  53.2146 247.4543 0001025  82.1840 277.9268 15.08840305 21087,6917.879,95.438,540.454,539.035,0.0
54063.0,STARLINK-5225,PAYLOAD,2023-03-04 21:41:10,15.08839235,0.0001227,53.2144,245.6704,83.6503,276.4629,0.00015297,2.147e-05,0.0,0 STARLINK-5225,1 54063U 22136N   23063.90358819  .00002147  00000-0  15297-3 0  9990,2 54063  53.2144 245.6704 0001227  83.6503 276.4629 15.08839235 20668,6917.883,95.438,540.597,538.899,0.0
54063.0,STARLINK-5225,PAYLOAD,2023-03-05 11:59:38,15.08840637,0.0001371,53.2136,242.9952,78.4302,281.6844,0.00021231,3.093e-05,0.0,0 STARLINK-5225,1 54063U 22136N   23064.49975089  .00003093  00000-0  21231-3 0  9995,2 54063  53.2136 242.9952 0001371  78.4302 281.6844 15.08840637 20758,6917.878,95.438,540.692,538.795,0.0
54063.0,STARLINK-5225,PAYLOAD,2023-03-05 18:21:10,15.08845327,0.0001217,53.2152,241.8053,81.3906,278.7224,0.00034123,5.148e-05,0.0,0 STARLINK-5225,1 54063U 22136N   23064.76470837  .00005148  00000-0  34123-3 0  9993,2 54063  53.2152 241.8053 0001217  81.3906 278.7224 15.08845327 21276,6917.864,95.437,540.571,538.887,0.0
54063.0,STARLINK-5225,PAYLOAD,2023-03-06 11:50:25,15.08841702,0.0001164,53.2149,238.5352,80.9541,279.1583,0.00022329,3.268e-05,0.0,0 STARLINK-5225,1 54063U 22136N   23065.49335142  .00003268  00000-0  22329-3 0  9999,2 54063  53.2149 238.5352 0001164  80.9541 279.1583 15.08841702 21386,6917.875,95.437,540.545,538.935,0.0
54063.0,STARLINK-5225,PAYLOAD,2023-03-06 21:22:44,15.08848049,0.0001304,53.2148,236.7496,93.191,266.9231,0.00027254,4.053e-05,0.0,0 STARLINK-5225,1 54063U 22136N   23065.89078850  .00004053  00000-0  27254-3 0  9998,2 54063  53.2148 236.7496 0001304  93.1910 266.9231 15.08848049 20964,6917.856,95.437,540.623,538.819,0.0
54063.0,STARLINK-5225,PAYLOAD,2023-03-07 21:13:30,15.08857652,0.0001205,53.2152,232.2898,90.3491,269.7639,0.00034778,5.254e-05,0.0,0 STARLINK-5225,1 54063U 22136N   23066.88438164  .00005254  00000-0  34778-3 0  9999,2 54063  53.2152 232.2898 0001205  90.3491 269.7639 15.08857652 21592,6917.826,95.436,540.525,538.858,0.0
